"{\n    \"CCSDS_OMM_VERS\": \"2.0\",\n    \"COMMENT\": \"GENERATED VIA SPACE-TRACK.ORG API\",\n    \"CREATION_DATE\": \"2025-08-30T11:24:46\",\n    \"ORIGINATOR\": \"18 SPCS\",\n    \"OBJECT_NAME\": \"GALILEO 16 (26C)\",\n    \"OBJECT_ID\": \"2016-069B\",\n    \"CENTER_NAME\": \"EARTH\",\n    \"REF_FRAME\": \"TEME\",\n    \"TIME_SYSTEM\": \"UTC\",\n    \"MEAN_ELEMENT_THEORY\": \"SGP4\",\n    \"EPOCH\": \"2025-08-29T15:41:44.094912\",\n    \"MEAN_MOTION\": \"1.7047405061\",\n    \"ECCENTRICITY\": \"0.0003434068\",\n    \"INCLINATION\": \"55.312393\",\n    \"RA_OF_ASC_NODE\": \"109.15641\",\n    \"ARG_OF_PERICENTER\": \"24.83809\",\n    \"MEAN_ANOMALY\": \"335.26594\",\n    \"EPHEMERIS_TYPE\": \"0\",\n    \"CLASSIFICATION_TYPE\": \"U\",\n    \"NORAD_CAT_ID\": \"41860\",\n    \"ELEMENT_SET_NO\": \"999\",\n    \"REV_AT_EPOCH\": \"5468\",\n    \"BSTAR\": \"0\",\n    \"MEAN_MOTION_DOT\": \"-0.000000051487\",\n    \"MEAN_MOTION_DDOT\": \"0\",\n    \"TLE_LINE0\": \"0 GALILEO 16 (26C)\",\n    \"TLE_LINE1\": \"1 41860U 16069B   25241.65398258 -.00000005  00000-0  00000-0 0  9997\",\n    \"TLE_LINE2\": \"2 41860  55.3124 109.1564 0003434  24.8381 335.2659  1.70474051 54682\",\n    \"SEMIMAJOR_AXIS\": \"29600.314\",\n    \"PERIOD\": \"844.703\",\n    \"APOAPSIS\": \"23232.344\",\n    \"PERIAPSIS\": \"23212.014\",\n    \"OBJECT_TYPE\": \"PAYLOAD\",\n    \"DECAYED\": \"0\"\n}"